{
    "links": {
        "self": "http://www.neowsapp.com/rest/v1/neo/3277571?api_key=iIulBulltgU6a56xZRHN4H3l9WmuAYTsLGpBGhQ2"
    },
    "id": "3277571",
    "neo_reference_id": "3277571",
    "name": "(2005 JV1)",
    "designation": "2005 JV1",
    "nasa_jpl_url": "http://ssd.jpl.nasa.gov/sbdb.cgi?sstr=3277571",
    "absolute_magnitude_h": 25.7,
    "estimated_diameter": {
        "kilometers": {
            "estimated_diameter_min": 0.0192555078,
            "estimated_diameter_max": 0.0430566244
        },
        "meters": {
            "estimated_diameter_min": 19.2555078188,
            "estimated_diameter_max": 43.0566244241
        },
        "miles": {
            "estimated_diameter_min": 0.0119648141,
            "estimated_diameter_max": 0.0267541378
        },
        "feet": {
            "estimated_diameter_min": 63.1742402722,
            "estimated_diameter_max": 141.2618956756
        }
    },
    "is_potentially_hazardous_asteroid": false,
    "close_approach_data": [
        {
            "close_approach_date": "1931-06-11",
            "close_approach_date_full": "1931-Jun-11 03:09",
            "epoch_date_close_approach": -1216846260000,
            "relative_velocity": {
                "kilometers_per_second": "14.3816548991",
                "kilometers_per_hour": "51773.9576366153",
                "miles_per_hour": "32170.3238437069"
            },
            "miss_distance": {
                "astronomical": "0.2691752959",
                "lunar": "104.7091901051",
                "kilometers": "40268050.923259733",
                "miles": "25021406.5856729954"
            },
            "orbiting_body": "Earth"
        },
        {
            "close_approach_date": "1997-06-23",
            "close_approach_date_full": "1997-Jun-23 01:24",
            "epoch_date_close_approach": 867029040000,
            "relative_velocity": {
                "kilometers_per_second": "19.7057269018",
                "kilometers_per_hour": "70940.6168464224",
                "miles_per_hour": "44079.7405066006"
            },
            "miss_distance": {
                "astronomical": "0.4509686714",
                "lunar": "175.4268131746",
                "kilometers": "67463952.678169918",
                "miles": "41920156.3307361484"
            },
            "orbiting_body": "Earth"
        },
        {
            "close_approach_date": "2005-04-30",
            "close_approach_date_full": "2005-Apr-30 13:33",
            "epoch_date_close_approach": 1114867980000,
            "relative_velocity": {
                "kilometers_per_second": "6.4414915605",
                "kilometers_per_hour": "23189.369617684",
                "miles_per_hour": "14408.9724716104"
            },
            "miss_distance": {
                "astronomical": "0.0171200351",
                "lunar": "6.6596936539",
                "kilometers": "2561120.785285237",
                "miles": "1591406.6614687906"
            },
            "orbiting_body": "Earth"
        }
    ],
    "orbital_data": {
        "orbit_id": "8",
        "orbit_determination_date": "2017-04-06 09:11:01",
        "first_observation_date": "2005-05-04",
        "last_observation_date": "2005-05-10",
        "data_arc_in_days": 6,
        "observations_used": 26,
        "orbit_uncertainty": "7",
        "minimum_orbit_intersection": ".0173816",
        "jupiter_tisserand_invariant": "3.791",
        "epoch_osculation": "2459000.5",
        "eccentricity": ".4650704527544087",
        "semi_major_axis": "1.913470031747943",
        "inclination": "3.439412438536158",
        "ascending_node_longitude": "217.0061821381165",
        "orbital_period": "966.7872717991061",
        "perihelion_distance": "1.023571657750934",
        "perihelion_argument": "356.5502499638962",
        "aphelion_distance": "2.803368405744951",
        "perihelion_time": "2459286.978892283209",
        "mean_anomaly": "253.3246183206003",
        "mean_motion": ".3723673350912778",
        "equinox": "J2000",
        "orbit_class": {
            "orbit_class_type": "AMO",
            "orbit_class_description": "Near-Earth asteroid orbits similar to that of 1221 Amor",
            "orbit_class_range": "1.017 AU < q (perihelion) < 1.3 AU"
        }
    },
    "is_sentry_object": false
}